ELFIN-A                 
1 43617U 18070E   21114.45618012  .00009386  00000-0  20289-3 0  9993
2 43617  93.0258 284.4176 0012841 198.4096 161.6698 15.44410189146459
CUBEBEL-1 (BSUSAT-1)    
1 43666U 18083E   21114.57939377  .00002171  00000-0  10623-3 0  9990
2 43666  97.4614 143.6176 0014921   4.1765 147.8312 15.19178130137830
CICERO 10               
1 43690U 18088A   21114.30577718  .00001934  00000-0  85136-4 0  9998
2 43690  85.0397 233.3698 0012498 245.1979 114.7963 15.21079581135998
IRVINE01                
1 43693U 18088D   21114.30221341  .00005160  00000-0  20374-3 0  9996
2 43693  85.0363 230.9230 0015573 218.4878 141.5256 15.25149060136186
PROXIMA I               
1 43694U 18088E   21114.27148270  .00002083  00000-0  87066-4 0  9995
2 43694  85.0339 231.1409 0017468 213.7905 146.2226 15.22808195136137
PROXIMA II              
1 43696U 18088G   21114.46680003  .00002115  00000-0  88455-4 0  9992
2 43696  85.0342 231.0196 0017546 212.9843 147.0306 15.22807558136156
FACSAT-1                
1 43721U 18096C   21114.46742917  .00003376  00000-0  12346-3 0  9998
2 43721  97.3868 192.0228 0018610 101.6864  22.2741 15.28605897133877
CENTAURI-2              
1 43722U 18096D   21114.51915634  .00004152  00000-0  14651-3 0  9997
2 43722  97.3894 192.7639 0018333 101.3331 258.9970 15.29647808133914
INNOSAT-2               
1 43738U 18096V   21114.56826735  .00007259  00000-0  22829-3 0  9999
2 43738  97.3934 196.2722 0023429 103.1316   9.7734 15.32996779134147
SIRION PATHFINDER-2     
1 43759U 18099B   21114.46444473  .00000531  00000-0  53109-4 0  9991
2 43759  97.6671 186.2118 0013362 219.0060 141.0198 14.95479950130412
CORVUS BC4              
1 43767U 18099K   21114.45528788  .00000271  00000-0  29995-4 0  9998
2 43767  97.6647 185.2608 0010735 223.2661 136.7718 14.94908821130368
MOVE-II                 
1 43780U 18099Y   21114.43014492  .00000738  00000-0  71130-4 0  9999
2 43780  97.6699 186.2763 0012160 230.5759 129.4387 14.95847929130392
SPACEBEE-7              
1 43816U 18099BL  21114.24859200  .00000284  00000-0  30379-4 0  9998
2 43816  97.6709 186.6672 0012556 214.4686 145.5722 14.96060970129952
SPACEBEE-5              
1 43817U 18099BM  21114.49745315  .00001849  00000-0  16475-3 0  9995
2 43817  97.6805 188.0156 0012122 209.7879 150.2654 14.97191602130039
SPACEBEE-6              
1 43818U 18099BN  21114.42649429  .00001268  00000-0  11681-3 0  9997
2 43818  97.6740 187.1800 0012331 211.8005 148.2473 14.96407100130141
SHIELDS 1               
1 43850U 18104B   21114.60364980  .00000856  00000-0  35828-4 0  9998
2 43850  85.0278 329.5791 0015266  15.5271 344.6436 15.21812156130780
STF-1                   
1 43852U 18104D   21114.39271178  .00002043  00000-0  86844-4 0  9996
2 43852  85.0321 330.3866 0015369  30.1992 330.0132 15.22266108130739
ZACUBE-2                
1 43907U 18111AH  21114.65395836  .00001195  00000-0  50215-4 0  9992
2 43907  97.2383  10.5927 0022632 120.7282 301.1062 15.25106360129439
LUME 1                  
1 43908U 18111AJ  21114.43336670  .00001977  00000-0  79025-4 0  9998
2 43908  97.2392  10.8619 0022143 120.3131 240.0302 15.26046315129439
AOBA VELOX-IV           
1 43940U 19003J   21114.37716758  .00004174  00000-0  15984-3 0  9992
2 43940  97.1842 160.4979 0022292 196.8971 163.1529 15.26845390126051
CATSAT-2                
1 44029U 98067PV  21103.18846432  .08994300  12447-4  71822-3 0  9990
2 44029  51.6303 210.8330 0006076 315.2983  44.7553 16.39157428125817
UNITE                   
1 44031U 98067PX  21114.12933598  .00038903  00000-0  26553-3 0  9998
2 44031  51.6362 185.1794 0001048  31.8099 328.2964 15.74426163127109
CATSAT-1                
1 44033U 98067PZ  21102.52173143  .03148828  12044-4  93890-3 0  9997
2 44033  51.6349 214.6392 0009094 323.2962  36.7435 16.26195910125613
RAAVANA-1               
1 44329U 98067QE  21114.48241344  .00049085  00000-0  36268-3 0  9995
2 44329  51.6347 202.6412 0004301  50.2376 309.9001 15.72455900105655
UGUISU                  
1 44330U 98067QF  21114.52799878  .00048400  00000-0  36336-3 0  9998
2 44330  51.6317 202.8660 0004212  50.0186 310.1181 15.72085463105633
NEPALISAT-1             
1 44331U 98067QG  21114.53927692  .00049898  00000-0  36934-3 0  9993
2 44331  51.6326 202.1902 0004158  52.6462 307.4914 15.72407564105655
SPOOQY-1                
1 44332U 98067QH  21114.46687133  .00048234  00000-0  36738-3 0  9994
2 44332  51.6332 203.2413 0003593  50.8964 309.2353 15.71747073105592
SPACEBEE-9              
1 44370U 19037F   21114.49863656  .00028048  00000-0  42363-3 0  9997
2 44370  45.0004 166.0019 0008409 273.3430  86.6502 15.54239348102788
SPACEBEE-8              
1 44371U 19037G   21114.39634254  .02525774  78132-2  27209-2 0  9991
2 44371  44.9881 129.3979 0006572  98.5898 261.5762 16.11007735103208
MOVE-IIB                
1 44398U 19038N   21114.56203533  .00002737  00000-0  15569-3 0  9993
2 44398  97.5765  78.8303 0025297 131.9908 228.3484 15.13458475 99613
SONATE                  
1 44400U 19038Q   21114.66136170  .00001018  00000-0  61922-4 0  9996
2 44400  97.5835  78.8441 0025716 131.8287 228.5140 15.12458313 99603
LUCKY-7                 
1 44406U 19038W   21114.41453597  .00001145  00000-0  68472-4 0  9998
2 44406  97.5849  78.8231 0025438 132.2366 228.1028 15.12837861 99571
BEESAT 9                
1 44412U 19038AC  21114.44491805  .00001661  00000-0  96928-4 0  9992
2 44412  97.5833  78.8646 0023334 136.8543 223.4522 15.13127977 99287
JAISAT-1                
1 44419U 19038F   21114.43195012  .00001658  00000-0  95567-4 0  9993
2 44419  97.5837  79.3562 0022228 135.1670 225.1362 15.13612415 99620
KRAKSAT                 
1 44427U 98067QM  21114.34496457  .00026196  00000-0  26557-3 0  9994
2 44427  51.6406 215.1333 0004229  25.6050  80.4387 15.65047104102992
VCC A                   
1 44428U 98067QN  21114.53770493  .00045069  00000-0  35916-3 0  9990
2 44428  51.6359 206.0908 0003535  17.8752 342.2370 15.70697133103135
ENTRYSAT                
1 44429U 98067QP  21114.51852329  .00076184  00000-0  45391-3 0  9998
2 44429  51.6317 199.0553 0004733   9.7318 350.3773 15.77238644103228
VCC C                   
1 44430U 98067QQ  21114.47511137  .00348550  59722-4  82907-3 0  9996
2 44430  51.6228 188.1304 0009453   1.0594 359.0432 15.96051803102193
VCC B                   
1 44431U 98067QR  21114.50857975  .00045488  00000-0  35618-3 0  9996
2 44431  51.6328 205.8155 0003719  18.4102 341.7029 15.71113609103076
DUCHIFAT-3              
1 44854U 19089C   21114.25604189  .00001046  00000-0  90088-4 0  9996
2 44854  36.9653  61.1302 0007411  52.6146 307.5260 14.99438476 74963
EYESAT-NANO             
1 44877U 19092E   21114.49632440  .00001834  00000-0  93796-4 0  9996
2 44877  97.4602 298.9085 0013773  24.1902 335.9975 15.17836046 74755
ORBITAL FACTORY 2 (OF-2)
1 45113U 19071C   21114.52028262  .00004989  00000-0  15360-3 0  9996
2 45113  51.6415 298.9441 0012619  99.2082 261.0329 15.35391670 68887
M2 PATHFINDER           
1 45727U 20037E   21114.40744751  .00000289  00000-0  34479-4 0  9998
2 45727  97.7131 293.4063 0012780 353.3355   6.7692 14.91359690 44361
NETSAT-4                
1 46504U 20068U   21114.40834386  .00000621  00000-0  51881-4 0  9996
2 46504  97.6892  51.7324 0008800 318.0318  42.0222 15.02071097 31125
NETSAT-3                
1 46505U 20068V   21114.61356953  .00000708  00000-0  58557-4 0  9992
2 46505  97.6887  51.9107 0007311 322.3973  37.6737 15.02034443 31161
NETSAT-1                
1 46506U 20068W   21114.55230908  .00000807  00000-0  66179-4 0  9996
2 46506  97.6879  51.8261 0005524 320.7178  39.3652 15.02001691 31159
NETSAT-2                
1 46507U 20068X   21114.62168079  .00000902  00000-0  73471-4 0  9993
2 46507  97.6870  51.8928 0005276 316.1204  43.9601 15.01979393 31117
SPOC                    
1 46921U 98067RR  21114.50169004  .00011792  00000-0  18997-3 0  9993
2 46921  51.6417 244.8816 0001830 242.6502 117.4302 15.53403801 26471
BOBCAT-1                
1 46922U 98067RS  21114.37481538  .00016537  00000-0  25150-3 0  9999
2 46922  51.6426 244.7961 0001713 256.6567 103.4233 15.54674419 26427
NEUTRON-1               
1 46923U 98067RT  21114.57727468  .00011365  00000-0  18416-3 0  9998
2 46923  51.6417 244.6344 0001803 259.3588 100.7200 15.53284209 26501
1998-067RU              
1 46924U 98067RU  21114.51841043  .00028561  00000-0  39067-3 0  9990
2 46924  51.6401 242.7383 0002679 301.6598  58.4132 15.57187062 26507
DESCENT                 
1 46927U 98067RX  21114.51705527  .00010871  00000-0  17661-3 0  9990
2 46927  51.6416 244.9801 0002050 282.8333  77.2428 15.53264166 26419
SAI-1 NANOCONNECT-2     
1 47701U 21015C   21114.26290357 -.00000071  00000-0  00000-0 0  9990
2 47701  97.4623 189.2104 0013896 124.8108 235.4517 15.22456548  8375
WARP-01                 
1 47924U 98067SA  21114.38005570  .00014758  00000-0  26125-3 0  9997
2 47924  51.6420 248.5515 0005036 269.2407  90.8005 15.50514889  6408
RSP-01                  
1 47925U 98067SB  21114.37708214  .00012700  00000-0  22577-3 0  9994
2 47925  51.6423 248.5341 0001982 196.9989 163.0934 15.50546400  6381
TAUSAT-1                
1 47926U 98067SC  21114.36895001  .00015565  00000-0  27076-3 0  9996
2 47926  51.6423 248.4802 0003141 199.5030 160.5839 15.50968633  6379
TSURU                   
1 47927U 98067SD  21114.37761165  .00011482  00000-0  20535-3 0  9998
2 47927  51.6424 248.5377 0002027 192.9929 167.1008 15.50485829  6388
STARS-EC                
1 47928U 98067SE  21114.37901313  .00012128  00000-0  21691-3 0  9992
2 47928  51.6421 248.5449 0005824 273.4855  86.5468 15.50413689  6364
MAYA-2                  
1 47929U 98067SF  21114.37675107  .00011535  00000-0  20603-3 0  9995
2 47929  51.6425 248.5320 0002117 189.4372 170.6578 15.50517847  6345
